IRIDIUM 144             
1 43249U 18030A   25335.50661279  .00000158  00000+0  49406-4 0  9998
2 43249  86.3981  13.0426 0002215  99.1738 260.9708 14.34217252401808
IRIDIUM 149             
1 43250U 18030B   25335.16411150  .00000117  00000+0  34563-4 0  9996
2 43250  86.3979  13.1548 0002160  94.9302 265.2140 14.34216771401771
IRIDIUM 157             
1 43251U 18030C   25335.39244779  .00000026  00000+0  22056-5 0  9997
2 43251  86.3983  13.1082 0002321  90.5344 269.6118 14.34217571401780
IRIDIUM 140             
1 43252U 18030D   25335.48124531  .00000337  00000+0  11327-3 0  9993
2 43252  86.3981  13.0841 0002116  97.2856 262.8580 14.34219773401857
IRIDIUM 145             
1 43253U 18030E   25335.46855822  .00000358  00000+0  12085-3 0  9991
2 43253  86.3982  13.0621 0002315 103.3303 256.8151 14.34218511401780
IRIDIUM 146             
1 43254U 18030F   25335.37976186  .00000100  00000+0  28604-4 0  9999
2 43254  86.3981  13.1122 0002283  98.2128 261.9326 14.34218035401780
IRIDIUM 148             
1 43255U 18030G   25335.48758624  .00000083  00000+0  22608-4 0  9995
2 43255  86.3981  13.1070 0002279  92.5302 267.6155 14.34218269401837
IRIDIUM 142             
1 43256U 18030H   25335.38610409  .00000275  00000+0  91097-4 0  9994
2 43256  86.3979  13.0458 0002351 103.2819 256.8639 14.34217543401783
